{
    "links": {
        "self": "http://www.neowsapp.com/rest/v1/neo/54051406?api_key=iIulBulltgU6a56xZRHN4H3l9WmuAYTsLGpBGhQ2"
    },
    "id": "54051406",
    "neo_reference_id": "54051406",
    "name": "(2020 QA6)",
    "designation": "2020 QA6",
    "nasa_jpl_url": "http://ssd.jpl.nasa.gov/sbdb.cgi?sstr=54051406",
    "absolute_magnitude_h": 26.142,
    "estimated_diameter": {
        "kilometers": {
            "estimated_diameter_min": 0.0157092328,
            "estimated_diameter_max": 0.0351269125
        },
        "meters": {
            "estimated_diameter_min": 15.7092328331,
            "estimated_diameter_max": 35.1269124892
        },
        "miles": {
            "estimated_diameter_min": 0.0097612617,
            "estimated_diameter_max": 0.0218268447
        },
        "feet": {
            "estimated_diameter_min": 51.5394794481,
            "estimated_diameter_max": 115.245779571
        }
    },
    "is_potentially_hazardous_asteroid": false,
    "close_approach_data": [
        {
            "close_approach_date": "1998-10-31",
            "close_approach_date_full": "1998-Oct-31 08:10",
            "epoch_date_close_approach": 909821400000,
            "relative_velocity": {
                "kilometers_per_second": "20.711468387",
                "kilometers_per_hour": "74561.2861932504",
                "miles_per_hour": "46329.4836349116"
            },
            "miss_distance": {
                "astronomical": "0.4910252059",
                "lunar": "191.0088050951",
                "kilometers": "73456324.918951433",
                "miles": "45643643.7807504554"
            },
            "orbiting_body": "Earth"
        },
        {
            "close_approach_date": "2020-08-27",
            "close_approach_date_full": "2020-Aug-27 19:41",
            "epoch_date_close_approach": 1598557260000,
            "relative_velocity": {
                "kilometers_per_second": "5.8228285199",
                "kilometers_per_hour": "20962.1826716095",
                "miles_per_hour": "13025.0851161454"
            },
            "miss_distance": {
                "astronomical": "0.0162357739",
                "lunar": "6.3157160471",
                "kilometers": "2428837.193241593",
                "miles": "1509209.4489082634"
            },
            "orbiting_body": "Earth"
        },
        {
            "close_approach_date": "2037-12-29",
            "close_approach_date_full": "2037-Dec-29 14:30",
            "epoch_date_close_approach": 2145709800000,
            "relative_velocity": {
                "kilometers_per_second": "8.1513038867",
                "kilometers_per_hour": "29344.6939921675",
                "miles_per_hour": "18233.6516641888"
            },
            "miss_distance": {
                "astronomical": "0.0251527046",
                "lunar": "9.7844020894",
                "kilometers": "3762791.032899202",
                "miles": "2338089.9291729076"
            },
            "orbiting_body": "Mars"
        }
    ],
    "orbital_data": {
        "orbit_id": "8",
        "orbit_determination_date": "2020-11-07 06:21:07",
        "first_observation_date": "2020-08-23",
        "last_observation_date": "2020-09-05",
        "data_arc_in_days": 13,
        "observations_used": 110,
        "orbit_uncertainty": "6",
        "minimum_orbit_intersection": ".0158467",
        "jupiter_tisserand_invariant": "3.938",
        "epoch_osculation": "2459000.5",
        "eccentricity": ".4344905712582197",
        "semi_major_axis": "1.809666933766633",
        "inclination": ".4673959245671646",
        "ascending_node_longitude": "309.1028264791405",
        "orbital_period": "889.1937540390176",
        "perihelion_distance": "1.023383713927258",
        "perihelion_argument": "33.01893043409628",
        "aphelion_distance": "2.595950153606008",
        "perihelion_time": "2459095.708887077181",
        "mean_anomaly": "321.4536211122764",
        "mean_motion": ".4048611434400644",
        "equinox": "J2000",
        "orbit_class": {
            "orbit_class_type": "AMO",
            "orbit_class_description": "Near-Earth asteroid orbits similar to that of 1221 Amor",
            "orbit_class_range": "1.017 AU < q (perihelion) < 1.3 AU"
        }
    },
    "is_sentry_object": false
}